[{"OBJECT_NAME":"ICEYE-X33","OBJECT_ID":"2024-149CJ","EPOCH":"2026-03-09T17:04:13.303776","MEAN_MOTION":15.0113344,"ECCENTRICITY":0.00060627,"INCLINATION":97.7033,"RA_OF_ASC_NODE":148.5516,"ARG_OF_PERICENTER":122.8099,"MEAN_ANOMALY":237.371,"EPHEMERIS_TYPE":0,"CLASSIFICATION_TYPE":"U","NORAD_CAT_ID":60548,"ELEMENT_SET_NO":999,"REV_AT_EPOCH":8528,"BSTAR":0.00045891369,"MEAN_MOTION_DOT":5.822e-5,"MEAN_MOTION_DDOT":0},{"OBJECT_NAME":"STARLINK-35858","OBJECT_ID":"2025-280N","EPOCH":"2026-03-09T22:27:13.590144","MEAN_MOTION":14.98346887,"ECCENTRICITY":0.0002778,"INCLINATION":70.0021,"RA_OF_ASC_NODE":333.7979,"ARG_OF_PERICENTER":267.7652,"MEAN_ANOMALY":92.3189,"EPHEMERIS_TYPE":0,"CLASSIFICATION_TYPE":"U","NORAD_CAT_ID":66833,"ELEMENT_SET_NO":999,"REV_AT_EPOCH":1611,"BSTAR":0.00077500561,"MEAN_MOTION_DOT":9.17e-5,"MEAN_MOTION_DDOT":0}]
